[{"OBJECT_NAME":"STARLINK-3254","OBJECT_ID":"2021-125BA","EPOCH":"2026-03-09T22:17:51.254880","MEAN_MOTION":15.0885855,"ECCENTRICITY":0.00012835,"INCLINATION":53.2162,"RA_OF_ASC_NODE":238.0557,"ARG_OF_PERICENTER":86.9741,"MEAN_ANOMALY":273.1399,"EPHEMERIS_TYPE":0,"CLASSIFICATION_TYPE":"U","NORAD_CAT_ID":50204,"ELEMENT_SET_NO":999,"REV_AT_EPOCH":23682,"BSTAR":0.00020434356,"MEAN_MOTION_DOT":2.967e-5,"MEAN_MOTION_DDOT":0},{"OBJECT_NAME":"FENGYUN 1C DEB","OBJECT_ID":"1999-025FK","EPOCH":"2026-03-09T17:46:38.104320","MEAN_MOTION":14.84141288,"ECCENTRICITY":0.01116123,"INCLINATION":98.9208,"RA_OF_ASC_NODE":354.5977,"ARG_OF_PERICENTER":225.7574,"MEAN_ANOMALY":200.963,"EPHEMERIS_TYPE":0,"CLASSIFICATION_TYPE":"U","NORAD_CAT_ID":29865,"ELEMENT_SET_NO":999,"REV_AT_EPOCH":2048,"BSTAR":0.00075888297,"MEAN_MOTION_DOT":7.012e-5,"MEAN_MOTION_DDOT":0}]
